{
  "type": "FeatureCollection",
  "features": [
    {
      "type": "Feature",
      "properties": {
        "norad_id": 29807,
        "name": "FENGYUN 1C DEB",
        "group": "fengyun-1c-debris",
        "lat": -7.46123575532839,
        "lon": -16.95696590331221,
        "alt_km": 810.3015826323417,
        "timestamp": "2025-12-02T23:34:15.787832+00:00",
        "meta_object_name": "FENGYUN 1C DEB",
        "meta_object_id": "1999-025CZ",
        "meta_epoch": "2025-12-02T11:40:23.937888",
        "meta_mean_motion": 14.08641976,
        "meta_eccentricity": 0.0080023,
        "meta_inclination": 98.7551,
        "meta_ra_of_asc_node": 341.4053,
        "meta_arg_of_pericenter": 0.9887,
        "meta_mean_anomaly": 359.1427,
        "meta_ephemeris_type": 0,
        "meta_classification_type": "U",
        "meta_norad_cat_id": 29807,
        "meta_element_set_no": 999,
        "meta_rev_at_epoch": 96950,
        "meta_bstar": 0.00029706,
        "meta_mean_motion_dot": 4.83e-06,
        "meta_mean_motion_ddot": 0,
        "tle_line1": "1 29807U 99025CZ  25336.48638817  .00000483  00000+0  29706-3 0  9996",
        "tle_line2": "2 29807  98.7551 341.4053 0080023   0.9887 359.1427 14.08641976969504"
      },
      "geometry": {
        "type": "Point",
        "coordinates": [
          -16.95696590331221,
          -7.46123575532839
        ]
      }
    },
    {
      "type": "Feature",
      "properties": {
        "norad_id": 29808,
        "name": "FENGYUN 1C DEB",
        "group": "fengyun-1c-debris",
        "lat": -28.174127988235703,
        "lon": 68.58959848689817,
        "alt_km": 532.2961210813428,
        "timestamp": "2025-12-02T23:34:15.787842+00:00",
        "meta_object_name": "FENGYUN 1C DEB",
        "meta_object_id": "1999-025DA",
        "meta_epoch": "2025-12-02T05:52:56.912160",
        "meta_mean_motion": 15.14238167,
        "meta_eccentricity": 0.0016006,
        "meta_inclination": 99.0175,
        "meta_ra_of_asc_node": 252.5968,
        "meta_arg_of_pericenter": 97.8497,
        "meta_mean_anomaly": 54.6559,
        "meta_ephemeris_type": 0,
        "meta_classification_type": "U",
        "meta_norad_cat_id": 29808,
        "meta_element_set_no": 999,
        "meta_rev_at_epoch": 98066,
        "meta_bstar": 0.014129,
        "meta_mean_motion_dot": 0.00268425,
        "meta_mean_motion_ddot": 0,
        "tle_line1": "1 29808U 99025DA  25336.24510315  .00268425  00000+0  14129-1 0  9996",
        "tle_line2": "2 29808  99.0175 252.5968 0016006  97.8497  54.6559 15.14238167980665"
      },
      "geometry": {
        "type": "Point",
        "coordinates": [
          68.58959848689817,
          -28.174127988235703
        ]
      }
    },
    {
      "type": "Feature",
      "properties": {
        "norad_id": 29809,
        "name": "FENGYUN 1C DEB",
        "group": "fengyun-1c-debris",
        "lat": 52.450798491047614,
        "lon": 131.78621733635393,
        "alt_km": 756.0235674476917,
        "timestamp": "2025-12-02T23:34:15.787853+00:00",
        "meta_object_name": "FENGYUN 1C DEB",
        "meta_object_id": "1999-025DB",
        "meta_epoch": "2025-12-02T10:15:15.923232",
        "meta_mean_motion": 14.46539927,
        "meta_eccentricity": 0.011683,
        "meta_inclination": 98.8588,
        "meta_ra_of_asc_node": 299.5002,
        "meta_arg_of_pericenter": 20.8269,
        "meta_mean_anomaly": 96.6705,
        "meta_ephemeris_type": 0,
        "meta_classification_type": "U",
        "meta_norad_cat_id": 29809,
        "meta_element_set_no": 999,
        "meta_rev_at_epoch": 99318,
        "meta_bstar": 0.00048467,
        "meta_mean_motion_dot": 1.847e-05,
        "meta_mean_motion_ddot": 0,
        "tle_line1": "1 29809U 99025DB  25336.42726763  .00001847  00000+0  48467-3 0  9990",
        "tle_line2": "2 29809  98.8588 299.5002 0116830  20.8269  96.6705 14.46539927993182"
      },
      "geometry": {
        "type": "Point",
        "coordinates": [
          131.78621733635393,
          52.450798491047614
        ]
      }
    },
    {
      "type": "Feature",
      "properties": {
        "norad_id": 29810,
        "name": "FENGYUN 1C DEB",
        "group": "fengyun-1c-debris",
        "lat": 39.68412799987737,
        "lon": 5.527168527226294,
        "alt_km": 743.5837138320003,
        "timestamp": "2025-12-02T23:34:15.787863+00:00",
        "meta_object_name": "FENGYUN 1C DEB",
        "meta_object_id": "1999-025DC",
        "meta_epoch": "2025-12-02T01:47:26.474208",
        "meta_mean_motion": 14.29105685,
        "meta_eccentricity": 0.00673616,
        "meta_inclination": 99.2081,
        "meta_ra_of_asc_node": 12.3045,
        "meta_arg_of_pericenter": 49.5345,
        "meta_mean_anomaly": 4.5903,
        "meta_ephemeris_type": 0,
        "meta_classification_type": "U",
        "meta_norad_cat_id": 29810,
        "meta_element_set_no": 999,
        "meta_rev_at_epoch": 98225,
        "meta_bstar": 0.00031163142,
        "meta_mean_motion_dot": 7.61e-06,
        "meta_mean_motion_ddot": 0,
        "tle_line1": "1 29810U 99025DC  25336.07461197  .00000761  00000+0  31163-3 0  9999",
        "tle_line2": "2 29810  99.2081  12.3045 0067361  49.5345   4.5903 14.29105685982257"
      },
      "geometry": {
        "type": "Point",
        "coordinates": [
          5.527168527226294,
          39.68412799987737
        ]
      }
    },
    {
      "type": "Feature",
      "properties": {
        "norad_id": 29812,
        "name": "FENGYUN 1C DEB",
        "group": "fengyun-1c-debris",
        "lat": 26.80317613847597,
        "lon": -9.113633043928676,
        "alt_km": 982.5538598246912,
        "timestamp": "2025-12-02T23:34:15.787873+00:00",
        "meta_object_name": "FENGYUN 1C DEB",
        "meta_object_id": "1999-025DE",
        "meta_epoch": "2025-11-29T11:12:47.447712",
        "meta_mean_motion": 14.01918477,
        "meta_eccentricity": 0.01440113,
        "meta_inclination": 98.3498,
        "meta_ra_of_asc_node": 163.4107,
        "meta_arg_of_pericenter": 5.1053,
        "meta_mean_anomaly": 57.4679,
        "meta_ephemeris_type": 0,
        "meta_classification_type": "U",
        "meta_norad_cat_id": 29812,
        "meta_element_set_no": 999,
        "meta_rev_at_epoch": 95986,
        "meta_bstar": 0.0011179541,
        "meta_mean_motion_dot": 1.825e-05,
        "meta_mean_motion_ddot": 0,
        "tle_line1": "1 29812U 99025DE  25333.46721583  .00001825  00000+0  11180-2 0  9997",
        "tle_line2": "2 29812  98.3498 163.4107 0144011   5.1053  57.4679 14.01918477959869"
      },
      "geometry": {
        "type": "Point",
        "coordinates": [
          -9.113633043928676,
          26.80317613847597
        ]
      }
    },
    {
      "type": "Feature",
      "properties": {
        "norad_id": 29813,
        "name": "FENGYUN 1C DEB",
        "group": "fengyun-1c-debris",
        "lat": -57.92533418558789,
        "lon": 162.95327389837107,
        "alt_km": 860.2006083964252,
        "timestamp": "2025-12-02T23:34:15.787883+00:00",
        "meta_object_name": "FENGYUN 1C DEB",
        "meta_object_id": "1999-025DF",
        "meta_epoch": "2025-12-02T12:56:24.933408",
        "meta_mean_motion": 14.09446693,
        "meta_eccentricity": 0.0011503,
        "meta_inclination": 98.7283,
        "meta_ra_of_asc_node": 356.714,
        "meta_arg_of_pericenter": 252.9183,
        "meta_mean_anomaly": 259.7823,
        "meta_ephemeris_type": 0,
        "meta_classification_type": "U",
        "meta_norad_cat_id": 29813,
        "meta_element_set_no": 999,
        "meta_rev_at_epoch": 97116,
        "meta_bstar": 0.00011179,
        "meta_mean_motion_dot": 1.53e-06,
        "meta_mean_motion_ddot": 0,
        "tle_line1": "1 29813U 99025DF  25336.53917747  .00000153  00000+0  11179-3 0  9990",
        "tle_line2": "2 29813  98.7283 356.7140 0011503 252.9183 259.7823 14.09446693971164"
      },
      "geometry": {
        "type": "Point",
        "coordinates": [
          162.95327389837107,
          -57.92533418558789
        ]
      }
    },
    {
      "type": "Feature",
      "properties": {
        "norad_id": 29815,
        "name": "FENGYUN 1C DEB",
        "group": "fengyun-1c-debris",
        "lat": 65.58846583810016,
        "lon": -176.10194768122102,
        "alt_km": 595.2200505878182,
        "timestamp": "2025-12-02T23:34:15.787893+00:00",
        "meta_object_name": "FENGYUN 1C DEB",
        "meta_object_id": "1999-025DH",
        "meta_epoch": "2025-12-02T11:33:55.632096",
        "meta_mean_motion": 14.63606496,
        "meta_eccentricity": 0.0183548,
        "meta_inclination": 98.0562,
        "meta_ra_of_asc_node": 345.2251,
        "meta_arg_of_pericenter": 167.4117,
        "meta_mean_anomaly": 193.1763,
        "meta_ephemeris_type": 0,
        "meta_classification_type": "U",
        "meta_norad_cat_id": 29815,
        "meta_element_set_no": 999,
        "meta_rev_at_epoch": 99705,
        "meta_bstar": 0.00063926,
        "meta_mean_motion_dot": 4.189e-05,
        "meta_mean_motion_ddot": 0,
        "tle_line1": "1 29815U 99025DH  25336.48189389  .00004189  00000+0  63926-3 0  9999",
        "tle_line2": "2 29815  98.0562 345.2251 0183548 167.4117 193.1763 14.63606496997050"
      },
      "geometry": {
        "type": "Point",
        "coordinates": [
          -176.10194768122102,
          65.58846583810016
        ]
      }
    }
  ]
}